{
"type": "FeatureCollection",
"name": "spill",
"crs": { "type": "name", "properties": { "name": "urn:ogc:def:crs:OGC:1.3:CRS84" } },
"features": [
<<<<<<< HEAD
{ "type": "Feature", "properties": { "spill_id": "CASE_001", "area_km2": 1.4559562560005821, "confidence": 0.96812239571048953, "detection_timestamp": "2026-09-08T10:53:05.889221+00:00", "centroid_lon": 72.025049879003248, "centroid_lat": 18.974949011969386 }, "geometry": { "type": "Polygon", "coordinates": [ [ [ 72.0229, 18.9789 ], [ 72.0229, 18.9788 ], [ 72.022, 18.9788 ], [ 72.022, 18.9787 ], [ 72.0214, 18.9787 ], [ 72.0214, 18.9786 ], [ 72.0208, 18.9786 ], [ 72.0208, 18.9785 ], [ 72.0203, 18.9785 ], [ 72.0203, 18.9784 ], [ 72.0198, 18.9784 ], [ 72.0198, 18.9783 ], [ 72.0195, 18.9783 ], [ 72.0195, 18.9782 ], [ 72.0192, 18.9782 ], [ 72.0192, 18.9781 ], [ 72.0188, 18.9781 ], [ 72.0188, 18.978 ], [ 72.0185, 18.978 ], [ 72.0185, 18.9779 ], [ 72.0182, 18.9779 ], [ 72.0182, 18.9778 ], [ 72.0179, 18.9778 ], [ 72.0179, 18.9777 ], [ 72.0177, 18.9777 ], [ 72.0177, 18.9776 ], [ 72.0175, 18.9776 ], [ 72.0175, 18.9775 ], [ 72.0173, 18.9775 ], [ 72.0173, 18.9774 ], [ 72.0171, 18.9774 ], [ 72.0171, 18.9773 ], [ 72.017, 18.9773 ], [ 72.017, 18.9772 ], [ 72.0168, 18.9772 ], [ 72.0168, 18.9771 ], [ 72.0166, 18.9771 ], [ 72.0166, 18.977 ], [ 72.0164, 18.977 ], [ 72.0164, 18.9769 ], [ 72.0163, 18.9769 ], [ 72.0163, 18.9768 ], [ 72.0162, 18.9768 ], [ 72.0162, 18.9767 ], [ 72.016, 18.9767 ], [ 72.016, 18.9766 ], [ 72.0159, 18.9766 ], [ 72.0159, 18.9765 ], [ 72.0158, 18.9765 ], [ 72.0158, 18.9764 ], [ 72.0157, 18.9764 ], [ 72.0157, 18.9763 ], [ 72.0156, 18.9763 ], [ 72.0156, 18.9762 ], [ 72.0155, 18.9762 ], [ 72.0155, 18.976 ], [ 72.0154, 18.976 ], [ 72.0154, 18.9758 ], [ 72.0153, 18.9758 ], [ 72.0153, 18.9757 ], [ 72.0152, 18.9757 ], [ 72.0152, 18.9754 ], [ 72.0151, 18.9754 ], [ 72.0151, 18.9745 ], [ 72.0152, 18.9745 ], [ 72.0152, 18.9743 ], [ 72.0153, 18.9743 ], [ 72.0153, 18.9741 ], [ 72.0154, 18.9741 ], [ 72.0154, 18.9739 ], [ 72.0155, 18.9739 ], [ 72.0155, 18.9737 ], [ 72.0156, 18.9737 ], [ 72.0156, 18.9736 ], [ 72.0157, 18.9736 ], [ 72.0157, 18.9735 ], [ 72.0158, 18.9735 ], [ 72.0158, 18.9734 ], [ 72.0159, 18.9734 ], [ 72.0159, 18.9733 ], [ 72.016, 18.9733 ], [ 72.016, 18.9732 ], [ 72.0162, 18.9732 ], [ 72.0162, 18.9731 ], [ 72.0163, 18.9731 ], [ 72.0163, 18.973 ], [ 72.0164, 18.973 ], [ 72.0164, 18.9729 ], [ 72.0165, 18.9729 ], [ 72.0165, 18.9728 ], [ 72.0167, 18.9728 ], [ 72.0167, 18.9727 ], [ 72.0169, 18.9727 ], [ 72.0169, 18.9726 ], [ 72.0171, 18.9726 ], [ 72.0171, 18.9725 ], [ 72.0173, 18.9725 ], [ 72.0173, 18.9724 ], [ 72.0176, 18.9724 ], [ 72.0176, 18.9723 ], [ 72.0177, 18.9723 ], [ 72.0177, 18.9722 ], [ 72.0179, 18.9722 ], [ 72.0179, 18.9721 ], [ 72.0183, 18.9721 ], [ 72.0183, 18.972 ], [ 72.0184, 18.972 ], [ 72.0184, 18.9719 ], [ 72.0188, 18.9719 ], [ 72.0188, 18.9718 ], [ 72.0192, 18.9718 ], [ 72.0192, 18.9717 ], [ 72.0195, 18.9717 ], [ 72.0195, 18.9716 ], [ 72.0199, 18.9716 ], [ 72.0199, 18.9715 ], [ 72.0203, 18.9715 ], [ 72.0203, 18.9714 ], [ 72.0208, 18.9714 ], [ 72.0208, 18.9713 ], [ 72.0214, 18.9713 ], [ 72.0214, 18.9712 ], [ 72.0219, 18.9712 ], [ 72.0219, 18.9711 ], [ 72.0228, 18.9711 ], [ 72.0228, 18.971 ], [ 72.0272, 18.971 ], [ 72.0272, 18.9711 ], [ 72.0281, 18.9711 ], [ 72.0281, 18.9712 ], [ 72.0288, 18.9712 ], [ 72.0288, 18.9713 ], [ 72.0294, 18.9713 ], [ 72.0294, 18.9714 ], [ 72.0299, 18.9714 ], [ 72.0299, 18.9715 ], [ 72.0302, 18.9715 ], [ 72.0302, 18.9716 ], [ 72.0307, 18.9716 ], [ 72.0307, 18.9717 ], [ 72.0309, 18.9717 ], [ 72.0309, 18.9718 ], [ 72.0313, 18.9718 ], [ 72.0313, 18.9719 ], [ 72.0317, 18.9719 ], [ 72.0317, 18.972 ], [ 72.0318, 18.972 ], [ 72.0318, 18.9721 ], [ 72.0321, 18.9721 ], [ 72.0321, 18.9722 ], [ 72.0324, 18.9722 ], [ 72.0324, 18.9723 ], [ 72.0326, 18.9723 ], [ 72.0326, 18.9724 ], [ 72.0328, 18.9724 ], [ 72.0328, 18.9725 ], [ 72.033, 18.9725 ], [ 72.033, 18.9726 ], [ 72.0331, 18.9726 ], [ 72.0331, 18.9727 ], [ 72.0333, 18.9727 ], [ 72.0333, 18.9728 ], [ 72.0336, 18.9728 ], [ 72.0336, 18.9729 ], [ 72.0337, 18.9729 ], [ 72.0337, 18.973 ], [ 72.0338, 18.973 ], [ 72.0338, 18.9731 ], [ 72.0339, 18.9731 ], [ 72.0339, 18.9732 ], [ 72.0341, 18.9732 ], [ 72.0341, 18.9733 ], [ 72.0342, 18.9733 ], [ 72.0342, 18.9734 ], [ 72.0343, 18.9734 ], [ 72.0343, 18.9735 ], [ 72.0344, 18.9735 ], [ 72.0344, 18.9736 ], [ 72.0345, 18.9736 ], [ 72.0345, 18.9737 ], [ 72.0346, 18.9737 ], [ 72.0346, 18.9739 ], [ 72.0347, 18.9739 ], [ 72.0347, 18.9741 ], [ 72.0348, 18.9741 ], [ 72.0348, 18.9743 ], [ 72.0349, 18.9743 ], [ 72.0349, 18.9745 ], [ 72.035, 18.9745 ], [ 72.035, 18.9754 ], [ 72.0349, 18.9754 ], [ 72.0349, 18.9757 ], [ 72.0348, 18.9757 ], [ 72.0348, 18.9758 ], [ 72.0347, 18.9758 ], [ 72.0347, 18.976 ], [ 72.0346, 18.976 ], [ 72.0346, 18.9762 ], [ 72.0345, 18.9762 ], [ 72.0345, 18.9763 ], [ 72.0344, 18.9763 ], [ 72.0344, 18.9764 ], [ 72.0343, 18.9764 ], [ 72.0343, 18.9765 ], [ 72.0342, 18.9765 ], [ 72.0342, 18.9766 ], [ 72.0341, 18.9766 ], [ 72.0341, 18.9767 ], [ 72.0339, 18.9767 ], [ 72.0339, 18.9768 ], [ 72.0338, 18.9768 ], [ 72.0338, 18.9769 ], [ 72.0337, 18.9769 ], [ 72.0337, 18.977 ], [ 72.0335, 18.977 ], [ 72.0335, 18.9771 ], [ 72.0333, 18.9771 ], [ 72.0333, 18.9772 ], [ 72.0332, 18.9772 ], [ 72.0332, 18.9773 ], [ 72.033, 18.9773 ], [ 72.033, 18.9774 ], [ 72.0328, 18.9774 ], [ 72.0328, 18.9775 ], [ 72.0325, 18.9775 ], [ 72.0325, 18.9776 ], [ 72.0323, 18.9776 ], [ 72.0323, 18.9777 ], [ 72.0321, 18.9777 ], [ 72.0321, 18.9778 ], [ 72.0319, 18.9778 ], [ 72.0319, 18.9779 ], [ 72.0317, 18.9779 ], [ 72.0317, 18.978 ], [ 72.0313, 18.978 ], [ 72.0313, 18.9781 ], [ 72.031, 18.9781 ], [ 72.031, 18.9782 ], [ 72.0306, 18.9782 ], [ 72.0306, 18.9783 ], [ 72.0302, 18.9783 ], [ 72.0302, 18.9784 ], [ 72.0299, 18.9784 ], [ 72.0299, 18.9785 ], [ 72.0293, 18.9785 ], [ 72.0293, 18.9786 ], [ 72.0288, 18.9786 ], [ 72.0288, 18.9787 ], [ 72.0281, 18.9787 ], [ 72.0281, 18.9788 ], [ 72.0272, 18.9788 ], [ 72.0272, 18.9789 ], [ 72.0229, 18.9789 ] ] ] } }
=======
{ "type": "Feature", "properties": { "spill_id": "CASE_001", "area_km2": 1.455956256000573, "confidence": 0.96812239571048953, "detection_timestamp": "2026-09-08T14:26:48.252671+00:00", "centroid": { "longitude": 72.02504987900326, "latitude": 18.974949011969386 } }, "geometry": { "type": "Polygon", "coordinates": [ [ [ 72.0229, 18.9789 ], [ 72.0229, 18.9788 ], [ 72.022, 18.9788 ], [ 72.022, 18.9787 ], [ 72.0214, 18.9787 ], [ 72.0214, 18.9786 ], [ 72.0208, 18.9786 ], [ 72.0208, 18.9785 ], [ 72.0203, 18.9785 ], [ 72.0203, 18.9784 ], [ 72.0198, 18.9784 ], [ 72.0198, 18.9783 ], [ 72.0195, 18.9783 ], [ 72.0195, 18.9782 ], [ 72.0192, 18.9782 ], [ 72.0192, 18.9781 ], [ 72.0188, 18.9781 ], [ 72.0188, 18.978 ], [ 72.0185, 18.978 ], [ 72.0185, 18.9779 ], [ 72.0182, 18.9779 ], [ 72.0182, 18.9778 ], [ 72.0179, 18.9778 ], [ 72.0179, 18.9777 ], [ 72.0177, 18.9777 ], [ 72.0177, 18.9776 ], [ 72.0175, 18.9776 ], [ 72.0175, 18.9775 ], [ 72.0173, 18.9775 ], [ 72.0173, 18.9774 ], [ 72.0171, 18.9774 ], [ 72.0171, 18.9773 ], [ 72.017, 18.9773 ], [ 72.017, 18.9772 ], [ 72.0168, 18.9772 ], [ 72.0168, 18.9771 ], [ 72.0166, 18.9771 ], [ 72.0166, 18.977 ], [ 72.0164, 18.977 ], [ 72.0164, 18.9769 ], [ 72.0163, 18.9769 ], [ 72.0163, 18.9768 ], [ 72.0162, 18.9768 ], [ 72.0162, 18.9767 ], [ 72.016, 18.9767 ], [ 72.016, 18.9766 ], [ 72.0159, 18.9766 ], [ 72.0159, 18.9765 ], [ 72.0158, 18.9765 ], [ 72.0158, 18.9764 ], [ 72.0157, 18.9764 ], [ 72.0157, 18.9763 ], [ 72.0156, 18.9763 ], [ 72.0156, 18.9762 ], [ 72.0155, 18.9762 ], [ 72.0155, 18.976 ], [ 72.0154, 18.976 ], [ 72.0154, 18.9758 ], [ 72.0153, 18.9758 ], [ 72.0153, 18.9757 ], [ 72.0152, 18.9757 ], [ 72.0152, 18.9754 ], [ 72.0151, 18.9754 ], [ 72.0151, 18.9745 ], [ 72.0152, 18.9745 ], [ 72.0152, 18.9743 ], [ 72.0153, 18.9743 ], [ 72.0153, 18.9741 ], [ 72.0154, 18.9741 ], [ 72.0154, 18.9739 ], [ 72.0155, 18.9739 ], [ 72.0155, 18.9737 ], [ 72.0156, 18.9737 ], [ 72.0156, 18.9736 ], [ 72.0157, 18.9736 ], [ 72.0157, 18.9735 ], [ 72.0158, 18.9735 ], [ 72.0158, 18.9734 ], [ 72.0159, 18.9734 ], [ 72.0159, 18.9733 ], [ 72.016, 18.9733 ], [ 72.016, 18.9732 ], [ 72.0162, 18.9732 ], [ 72.0162, 18.9731 ], [ 72.0163, 18.9731 ], [ 72.0163, 18.973 ], [ 72.0164, 18.973 ], [ 72.0164, 18.9729 ], [ 72.0165, 18.9729 ], [ 72.0165, 18.9728 ], [ 72.0167, 18.9728 ], [ 72.0167, 18.9727 ], [ 72.0169, 18.9727 ], [ 72.0169, 18.9726 ], [ 72.0171, 18.9726 ], [ 72.0171, 18.9725 ], [ 72.0173, 18.9725 ], [ 72.0173, 18.9724 ], [ 72.0176, 18.9724 ], [ 72.0176, 18.9723 ], [ 72.0177, 18.9723 ], [ 72.0177, 18.9722 ], [ 72.0179, 18.9722 ], [ 72.0179, 18.9721 ], [ 72.0183, 18.9721 ], [ 72.0183, 18.972 ], [ 72.0184, 18.972 ], [ 72.0184, 18.9719 ], [ 72.0188, 18.9719 ], [ 72.0188, 18.9718 ], [ 72.0192, 18.9718 ], [ 72.0192, 18.9717 ], [ 72.0195, 18.9717 ], [ 72.0195, 18.9716 ], [ 72.0199, 18.9716 ], [ 72.0199, 18.9715 ], [ 72.0203, 18.9715 ], [ 72.0203, 18.9714 ], [ 72.0208, 18.9714 ], [ 72.0208, 18.9713 ], [ 72.0214, 18.9713 ], [ 72.0214, 18.9712 ], [ 72.0219, 18.9712 ], [ 72.0219, 18.9711 ], [ 72.0228, 18.9711 ], [ 72.0228, 18.971 ], [ 72.0272, 18.971 ], [ 72.0272, 18.9711 ], [ 72.0281, 18.9711 ], [ 72.0281, 18.9712 ], [ 72.0288, 18.9712 ], [ 72.0288, 18.9713 ], [ 72.0294, 18.9713 ], [ 72.0294, 18.9714 ], [ 72.0299, 18.9714 ], [ 72.0299, 18.9715 ], [ 72.0302, 18.9715 ], [ 72.0302, 18.9716 ], [ 72.0307, 18.9716 ], [ 72.0307, 18.9717 ], [ 72.0309, 18.9717 ], [ 72.0309, 18.9718 ], [ 72.0313, 18.9718 ], [ 72.0313, 18.9719 ], [ 72.0317, 18.9719 ], [ 72.0317, 18.972 ], [ 72.0318, 18.972 ], [ 72.0318, 18.9721 ], [ 72.0321, 18.9721 ], [ 72.0321, 18.9722 ], [ 72.0324, 18.9722 ], [ 72.0324, 18.9723 ], [ 72.0326, 18.9723 ], [ 72.0326, 18.9724 ], [ 72.0328, 18.9724 ], [ 72.0328, 18.9725 ], [ 72.033, 18.9725 ], [ 72.033, 18.9726 ], [ 72.0331, 18.9726 ], [ 72.0331, 18.9727 ], [ 72.0333, 18.9727 ], [ 72.0333, 18.9728 ], [ 72.0336, 18.9728 ], [ 72.0336, 18.9729 ], [ 72.0337, 18.9729 ], [ 72.0337, 18.973 ], [ 72.0338, 18.973 ], [ 72.0338, 18.9731 ], [ 72.0339, 18.9731 ], [ 72.0339, 18.9732 ], [ 72.0341, 18.9732 ], [ 72.0341, 18.9733 ], [ 72.0342, 18.9733 ], [ 72.0342, 18.9734 ], [ 72.0343, 18.9734 ], [ 72.0343, 18.9735 ], [ 72.0344, 18.9735 ], [ 72.0344, 18.9736 ], [ 72.0345, 18.9736 ], [ 72.0345, 18.9737 ], [ 72.0346, 18.9737 ], [ 72.0346, 18.9739 ], [ 72.0347, 18.9739 ], [ 72.0347, 18.9741 ], [ 72.0348, 18.9741 ], [ 72.0348, 18.9743 ], [ 72.0349, 18.9743 ], [ 72.0349, 18.9745 ], [ 72.035, 18.9745 ], [ 72.035, 18.9754 ], [ 72.0349, 18.9754 ], [ 72.0349, 18.9757 ], [ 72.0348, 18.9757 ], [ 72.0348, 18.9758 ], [ 72.0347, 18.9758 ], [ 72.0347, 18.976 ], [ 72.0346, 18.976 ], [ 72.0346, 18.9762 ], [ 72.0345, 18.9762 ], [ 72.0345, 18.9763 ], [ 72.0344, 18.9763 ], [ 72.0344, 18.9764 ], [ 72.0343, 18.9764 ], [ 72.0343, 18.9765 ], [ 72.0342, 18.9765 ], [ 72.0342, 18.9766 ], [ 72.0341, 18.9766 ], [ 72.0341, 18.9767 ], [ 72.0339, 18.9767 ], [ 72.0339, 18.9768 ], [ 72.0338, 18.9768 ], [ 72.0338, 18.9769 ], [ 72.0337, 18.9769 ], [ 72.0337, 18.977 ], [ 72.0335, 18.977 ], [ 72.0335, 18.9771 ], [ 72.0333, 18.9771 ], [ 72.0333, 18.9772 ], [ 72.0332, 18.9772 ], [ 72.0332, 18.9773 ], [ 72.033, 18.9773 ], [ 72.033, 18.9774 ], [ 72.0328, 18.9774 ], [ 72.0328, 18.9775 ], [ 72.0325, 18.9775 ], [ 72.0325, 18.9776 ], [ 72.0323, 18.9776 ], [ 72.0323, 18.9777 ], [ 72.0321, 18.9777 ], [ 72.0321, 18.9778 ], [ 72.0319, 18.9778 ], [ 72.0319, 18.9779 ], [ 72.0317, 18.9779 ], [ 72.0317, 18.978 ], [ 72.0313, 18.978 ], [ 72.0313, 18.9781 ], [ 72.031, 18.9781 ], [ 72.031, 18.9782 ], [ 72.0306, 18.9782 ], [ 72.0306, 18.9783 ], [ 72.0302, 18.9783 ], [ 72.0302, 18.9784 ], [ 72.0299, 18.9784 ], [ 72.0299, 18.9785 ], [ 72.0293, 18.9785 ], [ 72.0293, 18.9786 ], [ 72.0288, 18.9786 ], [ 72.0288, 18.9787 ], [ 72.0281, 18.9787 ], [ 72.0281, 18.9788 ], [ 72.0272, 18.9788 ], [ 72.0272, 18.9789 ], [ 72.0229, 18.9789 ] ] ] } }
>>>>>>> origin/member6-backend-qa
]
}
