{
  "type": "Feature",
  "properties": {
    "spill_id": "CASE_001",
    "case_id": "CASE_001",
    "spill_latitude": 25.0,
    "spill_longitude": -85.0,
    "release_time_window": {
      "start": null,
      "end": null,
      "status": "unavailable_from_current_case",
      "reason": "The current-field dataset contains numerical time indices rather than absolute timestamps.",
      "current_start_time_index": 2
    },
    "uncertainty": {
      "position_uncertainty_deg": 0.01,
      "windage_range": [
        0.02,
        0.04
      ],
      "num_particles": 100,
      "probability_calibration": "not_calibrated",
      "interpretation": "Relative ensemble uncertainty; not a calibrated probability."
    },
    "num_particles": 100,
    "position_uncertainty_deg": 0.01,
    "windage_min": 0.02,
    "windage_max": 0.04,
    "random_seed": 42,
    "backward_steps": 2,
    "model_timestep_seconds": 3600.0,
    "start_time_index": 2,
    "grid_size": 20,
    "threshold": 0.5,
    "zone_type": "relative_high_density_source_zone",
    "probability_calibration": "not_calibrated",
    "description": "Relative high-density source zone derived from a backward drift ensemble. This zone represents possible source locations and is not an exact source point or a calibrated probability.",
    "temporal_alignment": "representative_case_alignment",
    "current_time_type": "dataset_index",
    "note": "Current dataset contains numerical time indices rather than absolute timestamps. Wind forcing uses the downloaded ERA5 timestamps. An absolute release-time window is therefore not established for this representative case."
  },
  "geometry": {
    "type": "MultiPolygon",
    "coordinates": [
      [
        [
          [
            -84.98516770947353,
            25.000302925017348
          ],
          [
            -84.98516770947353,
            24.999317295494592
          ],
          [
            -84.98638031758688,
            24.999317295494592
          ],
          [
            -84.98759292570024,
            24.999317295494592
          ],
          [
            -84.9888055338136,
            24.999317295494592
          ],
          [
            -84.99001814192697,
            24.999317295494592
          ],
          [
            -84.99001814192697,
            25.000302925017348
          ],
          [
            -84.9888055338136,
            25.000302925017348
          ],
          [
            -84.98759292570024,
            25.000302925017348
          ],
          [
            -84.98638031758688,
            25.000302925017348
          ],
          [
            -84.98516770947353,
            25.000302925017348
          ]
        ]
      ],
      [
        [
          [
            -84.99123075004032,
            25.002274184062856
          ],
          [
            -84.99001814192697,
            25.002274184062856
          ],
          [
            -84.99001814192697,
            25.001288554540103
          ],
          [
            -84.99123075004032,
            25.001288554540103
          ],
          [
            -84.99123075004032,
            25.002274184062856
          ]
        ]
      ],
      [
        [
          [
            -84.9888055338136,
            25.004245443108367
          ],
          [
            -84.9888055338136,
            25.00325981358561
          ],
          [
            -84.9888055338136,
            25.002274184062856
          ],
          [
            -84.99001814192697,
            25.002274184062856
          ],
          [
            -84.99001814192697,
            25.00325981358561
          ],
          [
            -84.99001814192697,
            25.004245443108367
          ],
          [
            -84.9888055338136,
            25.004245443108367
          ]
        ]
      ],
      [
        [
          [
            -84.99001814192697,
            25.00523107263112
          ],
          [
            -84.99001814192697,
            25.006216702153875
          ],
          [
            -84.9888055338136,
            25.006216702153875
          ],
          [
            -84.9888055338136,
            25.00523107263112
          ],
          [
            -84.99001814192697,
            25.00523107263112
          ]
        ]
      ],
      [
        [
          [
            -84.99001814192697,
            25.008187961199386
          ],
          [
            -84.9888055338136,
            25.008187961199386
          ],
          [
            -84.9888055338136,
            25.00720233167663
          ],
          [
            -84.99001814192697,
            25.00720233167663
          ],
          [
            -84.99001814192697,
            25.006216702153875
          ],
          [
            -84.99123075004032,
            25.006216702153875
          ],
          [
            -84.99123075004032,
            25.00720233167663
          ],
          [
            -84.99123075004032,
            25.008187961199386
          ],
          [
            -84.99001814192697,
            25.008187961199386
          ]
        ]
      ],
      [
        [
          [
            -84.98759292570024,
            25.00720233167663
          ],
          [
            -84.98759292570024,
            25.008187961199386
          ],
          [
            -84.98759292570024,
            25.009173590722142
          ],
          [
            -84.98638031758688,
            25.009173590722142
          ],
          [
            -84.98638031758688,
            25.010159220244894
          ],
          [
            -84.98516770947353,
            25.010159220244894
          ],
          [
            -84.98516770947353,
            25.01114484976765
          ],
          [
            -84.98395510136017,
            25.01114484976765
          ],
          [
            -84.98395510136017,
            25.010159220244894
          ],
          [
            -84.98395510136017,
            25.009173590722142
          ],
          [
            -84.98516770947353,
            25.009173590722142
          ],
          [
            -84.98516770947353,
            25.008187961199386
          ],
          [
            -84.98638031758688,
            25.008187961199386
          ],
          [
            -84.98638031758688,
            25.00720233167663
          ],
          [
            -84.98638031758688,
            25.006216702153875
          ],
          [
            -84.98759292570024,
            25.006216702153875
          ],
          [
            -84.98759292570024,
            25.00720233167663
          ]
        ]
      ],
      [
        [
          [
            -84.9888055338136,
            25.01114484976765
          ],
          [
            -84.9888055338136,
            25.010159220244894
          ],
          [
            -84.99001814192697,
            25.010159220244894
          ],
          [
            -84.99001814192697,
            25.01114484976765
          ],
          [
            -84.9888055338136,
            25.01114484976765
          ]
        ]
      ],
      [
        [
          [
            -84.98759292570024,
            25.01114484976765
          ],
          [
            -84.98638031758688,
            25.01114484976765
          ],
          [
            -84.98638031758688,
            25.010159220244894
          ],
          [
            -84.98759292570024,
            25.010159220244894
          ],
          [
            -84.98759292570024,
            25.01114484976765
          ]
        ]
      ],
      [
        [
          [
            -84.99123075004032,
            25.012130479290406
          ],
          [
            -84.99001814192697,
            25.012130479290406
          ],
          [
            -84.99001814192697,
            25.01114484976765
          ],
          [
            -84.99123075004032,
            25.01114484976765
          ],
          [
            -84.99123075004032,
            25.012130479290406
          ]
        ]
      ],
      [
        [
          [
            -84.98759292570024,
            25.012130479290406
          ],
          [
            -84.9888055338136,
            25.012130479290406
          ],
          [
            -84.99001814192697,
            25.012130479290406
          ],
          [
            -84.99001814192697,
            25.013116108813158
          ],
          [
            -84.9888055338136,
            25.013116108813158
          ],
          [
            -84.98759292570024,
            25.013116108813158
          ],
          [
            -84.98759292570024,
            25.012130479290406
          ]
        ]
      ],
      [
        [
          [
            -84.98759292570024,
            25.014101738335913
          ],
          [
            -84.9888055338136,
            25.014101738335913
          ],
          [
            -84.9888055338136,
            25.01508736785867
          ],
          [
            -84.98759292570024,
            25.01508736785867
          ],
          [
            -84.98638031758688,
            25.01508736785867
          ],
          [
            -84.98638031758688,
            25.016072997381425
          ],
          [
            -84.98516770947353,
            25.016072997381425
          ],
          [
            -84.98516770947353,
            25.01508736785867
          ],
          [
            -84.98516770947353,
            25.014101738335913
          ],
          [
            -84.98516770947353,
            25.013116108813158
          ],
          [
            -84.98638031758688,
            25.013116108813158
          ],
          [
            -84.98638031758688,
            25.014101738335913
          ],
          [
            -84.98759292570024,
            25.014101738335913
          ]
        ]
      ],
      [
        [
          [
            -84.99123075004032,
            25.01508736785867
          ],
          [
            -84.99123075004032,
            25.014101738335913
          ],
          [
            -84.99244335815368,
            25.014101738335913
          ],
          [
            -84.99244335815368,
            25.01508736785867
          ],
          [
            -84.99123075004032,
            25.01508736785867
          ]
        ]
      ],
      [
        [
          [
            -84.99123075004032,
            25.01705862690418
          ],
          [
            -84.99123075004032,
            25.016072997381425
          ],
          [
            -84.99244335815368,
            25.016072997381425
          ],
          [
            -84.99244335815368,
            25.01705862690418
          ],
          [
            -84.99123075004032,
            25.01705862690418
          ]
        ]
      ],
      [
        [
          [
            -84.9888055338136,
            25.018044256426933
          ],
          [
            -84.98759292570024,
            25.018044256426933
          ],
          [
            -84.98759292570024,
            25.01705862690418
          ],
          [
            -84.98759292570024,
            25.016072997381425
          ],
          [
            -84.9888055338136,
            25.016072997381425
          ],
          [
            -84.9888055338136,
            25.01705862690418
          ],
          [
            -84.99001814192697,
            25.01705862690418
          ],
          [
            -84.99001814192697,
            25.018044256426933
          ],
          [
            -84.9888055338136,
            25.018044256426933
          ]
        ]
      ],
      [
        [
          [
            -84.98031727702009,
            25.001288554540103
          ],
          [
            -84.98031727702009,
            25.000302925017348
          ],
          [
            -84.98152988513345,
            25.000302925017348
          ],
          [
            -84.98152988513345,
            25.001288554540103
          ],
          [
            -84.98031727702009,
            25.001288554540103
          ]
        ]
      ],
      [
        [
          [
            -84.98395510136017,
            25.002274184062856
          ],
          [
            -84.98395510136017,
            25.001288554540103
          ],
          [
            -84.98516770947353,
            25.001288554540103
          ],
          [
            -84.98516770947353,
            25.002274184062856
          ],
          [
            -84.98395510136017,
            25.002274184062856
          ]
        ]
      ],
      [
        [
          [
            -84.9827424932468,
            25.00325981358561
          ],
          [
            -84.9827424932468,
            25.004245443108367
          ],
          [
            -84.98152988513345,
            25.004245443108367
          ],
          [
            -84.98152988513345,
            25.00325981358561
          ],
          [
            -84.98152988513345,
            25.002274184062856
          ],
          [
            -84.98152988513345,
            25.001288554540103
          ],
          [
            -84.9827424932468,
            25.001288554540103
          ],
          [
            -84.9827424932468,
            25.002274184062856
          ],
          [
            -84.98395510136017,
            25.002274184062856
          ],
          [
            -84.98395510136017,
            25.00325981358561
          ],
          [
            -84.9827424932468,
            25.00325981358561
          ]
        ]
      ],
      [
        [
          [
            -84.98516770947353,
            25.00325981358561
          ],
          [
            -84.98516770947353,
            25.004245443108367
          ],
          [
            -84.98395510136017,
            25.004245443108367
          ],
          [
            -84.98395510136017,
            25.00325981358561
          ],
          [
            -84.98516770947353,
            25.00325981358561
          ]
        ]
      ],
      [
        [
          [
            -84.9827424932468,
            25.00523107263112
          ],
          [
            -84.9827424932468,
            25.004245443108367
          ],
          [
            -84.98395510136017,
            25.004245443108367
          ],
          [
            -84.98395510136017,
            25.00523107263112
          ],
          [
            -84.9827424932468,
            25.00523107263112
          ]
        ]
      ],
      [
        [
          [
            -84.97789206079338,
            25.006216702153875
          ],
          [
            -84.97667945268002,
            25.006216702153875
          ],
          [
            -84.97667945268002,
            25.00523107263112
          ],
          [
            -84.97789206079338,
            25.00523107263112
          ],
          [
            -84.97789206079338,
            25.006216702153875
          ]
        ]
      ],
      [
        [
          [
            -84.98516770947353,
            25.006216702153875
          ],
          [
            -84.98516770947353,
            25.00720233167663
          ],
          [
            -84.98395510136017,
            25.00720233167663
          ],
          [
            -84.9827424932468,
            25.00720233167663
          ],
          [
            -84.9827424932468,
            25.006216702153875
          ],
          [
            -84.98395510136017,
            25.006216702153875
          ],
          [
            -84.98516770947353,
            25.006216702153875
          ]
        ]
      ],
      [
        [
          [
            -84.98031727702009,
            25.009173590722142
          ],
          [
            -84.97910466890673,
            25.009173590722142
          ],
          [
            -84.97910466890673,
            25.008187961199386
          ],
          [
            -84.98031727702009,
            25.008187961199386
          ],
          [
            -84.98031727702009,
            25.009173590722142
          ]
        ]
      ],
      [
        [
          [
            -84.98152988513345,
            25.009173590722142
          ],
          [
            -84.9827424932468,
            25.009173590722142
          ],
          [
            -84.9827424932468,
            25.010159220244894
          ],
          [
            -84.9827424932468,
            25.01114484976765
          ],
          [
            -84.98152988513345,
            25.01114484976765
          ],
          [
            -84.98152988513345,
            25.010159220244894
          ],
          [
            -84.98152988513345,
            25.009173590722142
          ]
        ]
      ],
      [
        [
          [
            -84.98031727702009,
            25.01114484976765
          ],
          [
            -84.97910466890673,
            25.01114484976765
          ],
          [
            -84.97910466890673,
            25.010159220244894
          ],
          [
            -84.98031727702009,
            25.010159220244894
          ],
          [
            -84.98031727702009,
            25.01114484976765
          ]
        ]
      ],
      [
        [
          [
            -84.97667945268002,
            25.01114484976765
          ],
          [
            -84.97667945268002,
            25.010159220244894
          ],
          [
            -84.97789206079338,
            25.010159220244894
          ],
          [
            -84.97789206079338,
            25.01114484976765
          ],
          [
            -84.97667945268002,
            25.01114484976765
          ]
        ]
      ],
      [
        [
          [
            -84.9827424932468,
            25.012130479290406
          ],
          [
            -84.9827424932468,
            25.01114484976765
          ],
          [
            -84.98395510136017,
            25.01114484976765
          ],
          [
            -84.98395510136017,
            25.012130479290406
          ],
          [
            -84.9827424932468,
            25.012130479290406
          ]
        ]
      ],
      [
        [
          [
            -84.98152988513345,
            25.013116108813158
          ],
          [
            -84.9827424932468,
            25.013116108813158
          ],
          [
            -84.9827424932468,
            25.014101738335913
          ],
          [
            -84.98152988513345,
            25.014101738335913
          ],
          [
            -84.98031727702009,
            25.014101738335913
          ],
          [
            -84.98031727702009,
            25.013116108813158
          ],
          [
            -84.97910466890673,
            25.013116108813158
          ],
          [
            -84.97910466890673,
            25.012130479290406
          ],
          [
            -84.98031727702009,
            25.012130479290406
          ],
          [
            -84.98152988513345,
            25.012130479290406
          ],
          [
            -84.98152988513345,
            25.013116108813158
          ]
        ]
      ],
      [
        [
          [
            -84.97546684456665,
            25.014101738335913
          ],
          [
            -84.9742542364533,
            25.014101738335913
          ],
          [
            -84.9742542364533,
            25.013116108813158
          ],
          [
            -84.97546684456665,
            25.013116108813158
          ],
          [
            -84.97667945268002,
            25.013116108813158
          ],
          [
            -84.97667945268002,
            25.014101738335913
          ],
          [
            -84.97546684456665,
            25.014101738335913
          ]
        ]
      ],
      [
        [
          [
            -84.97789206079338,
            25.01508736785867
          ],
          [
            -84.97667945268002,
            25.01508736785867
          ],
          [
            -84.97667945268002,
            25.014101738335913
          ],
          [
            -84.97789206079338,
            25.014101738335913
          ],
          [
            -84.97910466890673,
            25.014101738335913
          ],
          [
            -84.97910466890673,
            25.01508736785867
          ],
          [
            -84.97789206079338,
            25.01508736785867
          ]
        ]
      ],
      [
        [
          [
            -84.98395510136017,
            25.016072997381425
          ],
          [
            -84.9827424932468,
            25.016072997381425
          ],
          [
            -84.9827424932468,
            25.01508736785867
          ],
          [
            -84.98395510136017,
            25.01508736785867
          ],
          [
            -84.98395510136017,
            25.016072997381425
          ]
        ]
      ],
      [
        [
          [
            -84.97667945268002,
            25.016072997381425
          ],
          [
            -84.97546684456665,
            25.016072997381425
          ],
          [
            -84.9742542364533,
            25.016072997381425
          ],
          [
            -84.97304162833994,
            25.016072997381425
          ],
          [
            -84.97304162833994,
            25.01508736785867
          ],
          [
            -84.9742542364533,
            25.01508736785867
          ],
          [
            -84.97546684456665,
            25.01508736785867
          ],
          [
            -84.97667945268002,
            25.01508736785867
          ],
          [
            -84.97667945268002,
            25.016072997381425
          ]
        ]
      ],
      [
        [
          [
            -84.98152988513345,
            25.01902988594969
          ],
          [
            -84.98152988513345,
            25.018044256426933
          ],
          [
            -84.9827424932468,
            25.018044256426933
          ],
          [
            -84.9827424932468,
            25.01902988594969
          ],
          [
            -84.98152988513345,
            25.01902988594969
          ]
        ]
      ],
      [
        [
          [
            -84.97304162833994,
            25.000302925017348
          ],
          [
            -84.97304162833994,
            24.999317295494592
          ],
          [
            -84.9742542364533,
            24.999317295494592
          ],
          [
            -84.97546684456665,
            24.999317295494592
          ],
          [
            -84.97546684456665,
            25.000302925017348
          ],
          [
            -84.9742542364533,
            25.000302925017348
          ],
          [
            -84.97304162833994,
            25.000302925017348
          ]
        ]
      ],
      [
        [
          [
            -84.97182902022658,
            24.999317295494592
          ],
          [
            -84.97182902022658,
            25.000302925017348
          ],
          [
            -84.97061641211322,
            25.000302925017348
          ],
          [
            -84.97061641211322,
            24.999317295494592
          ],
          [
            -84.97182902022658,
            24.999317295494592
          ]
        ]
      ],
      [
        [
          [
            -84.97182902022658,
            25.001288554540103
          ],
          [
            -84.97182902022658,
            25.000302925017348
          ],
          [
            -84.97304162833994,
            25.000302925017348
          ],
          [
            -84.97304162833994,
            25.001288554540103
          ],
          [
            -84.97182902022658,
            25.001288554540103
          ]
        ]
      ],
      [
        [
          [
            -84.97546684456665,
            25.002274184062856
          ],
          [
            -84.97546684456665,
            25.001288554540103
          ],
          [
            -84.97667945268002,
            25.001288554540103
          ],
          [
            -84.97667945268002,
            25.002274184062856
          ],
          [
            -84.97667945268002,
            25.00325981358561
          ],
          [
            -84.97546684456665,
            25.00325981358561
          ],
          [
            -84.97546684456665,
            25.002274184062856
          ]
        ]
      ],
      [
        [
          [
            -84.97061641211322,
            25.00325981358561
          ],
          [
            -84.97061641211322,
            25.002274184062856
          ],
          [
            -84.97182902022658,
            25.002274184062856
          ],
          [
            -84.97182902022658,
            25.00325981358561
          ],
          [
            -84.97061641211322,
            25.00325981358561
          ]
        ]
      ],
      [
        [
          [
            -84.97667945268002,
            25.00523107263112
          ],
          [
            -84.97546684456665,
            25.00523107263112
          ],
          [
            -84.97546684456665,
            25.004245443108367
          ],
          [
            -84.97667945268002,
            25.004245443108367
          ],
          [
            -84.97667945268002,
            25.00523107263112
          ]
        ]
      ],
      [
        [
          [
            -84.97182902022658,
            25.00523107263112
          ],
          [
            -84.97304162833994,
            25.00523107263112
          ],
          [
            -84.97304162833994,
            25.004245443108367
          ],
          [
            -84.9742542364533,
            25.004245443108367
          ],
          [
            -84.9742542364533,
            25.00523107263112
          ],
          [
            -84.9742542364533,
            25.006216702153875
          ],
          [
            -84.97304162833994,
            25.006216702153875
          ],
          [
            -84.97182902022658,
            25.006216702153875
          ],
          [
            -84.97182902022658,
            25.00523107263112
          ]
        ]
      ],
      [
        [
          [
            -84.96940380399987,
            25.00523107263112
          ],
          [
            -84.9681911958865,
            25.00523107263112
          ],
          [
            -84.9681911958865,
            25.004245443108367
          ],
          [
            -84.96940380399987,
            25.004245443108367
          ],
          [
            -84.96940380399987,
            25.00523107263112
          ]
        ]
      ],
      [
        [
          [
            -84.97182902022658,
            25.00720233167663
          ],
          [
            -84.97061641211322,
            25.00720233167663
          ],
          [
            -84.97061641211322,
            25.006216702153875
          ],
          [
            -84.97182902022658,
            25.006216702153875
          ],
          [
            -84.97182902022658,
            25.00720233167663
          ]
        ]
      ],
      [
        [
          [
            -84.9681911958865,
            25.00720233167663
          ],
          [
            -84.9681911958865,
            25.006216702153875
          ],
          [
            -84.96940380399987,
            25.006216702153875
          ],
          [
            -84.96940380399987,
            25.00720233167663
          ],
          [
            -84.9681911958865,
            25.00720233167663
          ]
        ]
      ],
      [
        [
          [
            -84.97667945268002,
            25.00720233167663
          ],
          [
            -84.97667945268002,
            25.008187961199386
          ],
          [
            -84.97546684456665,
            25.008187961199386
          ],
          [
            -84.9742542364533,
            25.008187961199386
          ],
          [
            -84.9742542364533,
            25.00720233167663
          ],
          [
            -84.97546684456665,
            25.00720233167663
          ],
          [
            -84.97667945268002,
            25.00720233167663
          ]
        ]
      ],
      [
        [
          [
            -84.97061641211322,
            25.00720233167663
          ],
          [
            -84.97061641211322,
            25.008187961199386
          ],
          [
            -84.96940380399987,
            25.008187961199386
          ],
          [
            -84.96940380399987,
            25.00720233167663
          ],
          [
            -84.97061641211322,
            25.00720233167663
          ]
        ]
      ],
      [
        [
          [
            -84.97061641211322,
            25.009173590722142
          ],
          [
            -84.97061641211322,
            25.008187961199386
          ],
          [
            -84.97182902022658,
            25.008187961199386
          ],
          [
            -84.97182902022658,
            25.009173590722142
          ],
          [
            -84.97061641211322,
            25.009173590722142
          ]
        ]
      ],
      [
        [
          [
            -84.97667945268002,
            25.010159220244894
          ],
          [
            -84.97546684456665,
            25.010159220244894
          ],
          [
            -84.97546684456665,
            25.009173590722142
          ],
          [
            -84.97667945268002,
            25.009173590722142
          ],
          [
            -84.97667945268002,
            25.010159220244894
          ]
        ]
      ],
      [
        [
          [
            -84.97304162833994,
            25.010159220244894
          ],
          [
            -84.9742542364533,
            25.010159220244894
          ],
          [
            -84.9742542364533,
            25.01114484976765
          ],
          [
            -84.9742542364533,
            25.012130479290406
          ],
          [
            -84.97304162833994,
            25.012130479290406
          ],
          [
            -84.97304162833994,
            25.01114484976765
          ],
          [
            -84.97304162833994,
            25.010159220244894
          ]
        ]
      ],
      [
        [
          [
            -84.97182902022658,
            25.013116108813158
          ],
          [
            -84.97182902022658,
            25.012130479290406
          ],
          [
            -84.97304162833994,
            25.012130479290406
          ],
          [
            -84.97304162833994,
            25.013116108813158
          ],
          [
            -84.97304162833994,
            25.014101738335913
          ],
          [
            -84.97182902022658,
            25.014101738335913
          ],
          [
            -84.97182902022658,
            25.013116108813158
          ]
        ]
      ],
      [
        [
          [
            -84.97182902022658,
            25.016072997381425
          ],
          [
            -84.97304162833994,
            25.016072997381425
          ],
          [
            -84.97304162833994,
            25.01705862690418
          ],
          [
            -84.97182902022658,
            25.01705862690418
          ],
          [
            -84.97182902022658,
            25.016072997381425
          ]
        ]
      ],
      [
        [
          [
            -84.96940380399987,
            25.01705862690418
          ],
          [
            -84.9681911958865,
            25.01705862690418
          ],
          [
            -84.9681911958865,
            25.016072997381425
          ],
          [
            -84.96940380399987,
            25.016072997381425
          ],
          [
            -84.96940380399987,
            25.01705862690418
          ]
        ]
      ],
      [
        [
          [
            -84.9742542364533,
            25.018044256426933
          ],
          [
            -84.9742542364533,
            25.01705862690418
          ],
          [
            -84.97546684456665,
            25.01705862690418
          ],
          [
            -84.97546684456665,
            25.018044256426933
          ],
          [
            -84.9742542364533,
            25.018044256426933
          ]
        ]
      ],
      [
        [
          [
            -84.97061641211322,
            25.01902988594969
          ],
          [
            -84.97061641211322,
            25.018044256426933
          ],
          [
            -84.97182902022658,
            25.018044256426933
          ],
          [
            -84.97182902022658,
            25.01902988594969
          ],
          [
            -84.97061641211322,
            25.01902988594969
          ]
        ]
      ]
    ]
  }
}